[{"OBJECT_NAME":"STARLINK-5930","OBJECT_ID":"2023-037Q","EPOCH":"2026-03-09T23:23:47.515200","MEAN_MOTION":14.98311549,"ECCENTRICITY":0.00030976,"INCLINATION":69.9994,"RA_OF_ASC_NODE":303.587,"ARG_OF_PERICENTER":265.0887,"MEAN_ANOMALY":94.9918,"EPHEMERIS_TYPE":0,"CLASSIFICATION_TYPE":"U","NORAD_CAT_ID":55928,"ELEMENT_SET_NO":999,"REV_AT_EPOCH":16353,"BSTAR":0.00013686691,"MEAN_MOTION_DOT":1.54e-5,"MEAN_MOTION_DDOT":0},{"OBJECT_NAME":"LEMUR-2-MARACHE-FRAN","OBJECT_ID":"2025-052BE","EPOCH":"2026-03-09T17:00:45.199872","MEAN_MOTION":14.98898773,"ECCENTRICITY":0.00023242,"INCLINATION":97.6985,"RA_OF_ASC_NODE":323.5335,"ARG_OF_PERICENTER":45.7689,"MEAN_ANOMALY":314.3725,"EPHEMERIS_TYPE":0,"CLASSIFICATION_TYPE":"U","NORAD_CAT_ID":63262,"ELEMENT_SET_NO":999,"REV_AT_EPOCH":5385,"BSTAR":0.0006846049,"MEAN_MOTION_DOT":8.22e-5,"MEAN_MOTION_DDOT":0}]
